[{"OBJECT_NAME":"GAOFEN-9 03","OBJECT_ID":"2020-039A","EPOCH":"2026-03-09T21:55:15.121344","MEAN_MOTION":15.30529116,"ECCENTRICITY":0.0013094,"INCLINATION":97.5219,"RA_OF_ASC_NODE":201.2158,"ARG_OF_PERICENTER":77.4533,"MEAN_ANOMALY":282.8172,"EPHEMERIS_TYPE":0,"CLASSIFICATION_TYPE":"U","NORAD_CAT_ID":45794,"ELEMENT_SET_NO":999,"REV_AT_EPOCH":31856,"BSTAR":0.00039258132,"MEAN_MOTION_DOT":0.00011544,"MEAN_MOTION_DDOT":0},{"OBJECT_NAME":"STARLINK-32611","OBJECT_ID":"2024-210T","EPOCH":"2026-03-09T07:41:32.038944","MEAN_MOTION":15.27599373,"ECCENTRICITY":0.00029733,"INCLINATION":43.0003,"RA_OF_ASC_NODE":181.8939,"ARG_OF_PERICENTER":281.0334,"MEAN_ANOMALY":79.0183,"EPHEMERIS_TYPE":0,"CLASSIFICATION_TYPE":"U","NORAD_CAT_ID":61976,"ELEMENT_SET_NO":999,"REV_AT_EPOCH":7482,"BSTAR":0.0012881067,"MEAN_MOTION_DOT":0.00035378,"MEAN_MOTION_DDOT":0}]
